IRIDIUM 154             
1 43574U 18061F   26163.13850078  .00000021  00000+0  39264-6 0  9991
2 43574  86.3968  58.9178 0002076  87.1992 272.9442 14.34217633412689
IRIDIUM 163             
1 43575U 18061G   26163.18923401  .00000193  00000+0  62022-4 0  9994
2 43575  86.3963  58.8121 0002280  83.4012 276.7444 14.34216757412669
IRIDIUM 156             
1 43576U 18061H   26163.23363877  .00000263  00000+0  86790-4 0  9992
2 43576  86.3963  58.8007 0002094  80.5538 279.5894 14.34217437412663
IRIDIUM 164             
1 43577U 18061J   26163.21461192  .00000068  00000+0  17349-4 0  9997
2 43577  86.3966  58.8490 0002098  88.7598 271.3838 14.34217648412700
IRIDIUM 159             
1 43578U 18061K   26163.18289899  .00000161  00000+0  50470-4 0  9992
2 43578  86.3963  58.7992 0002307  84.2570 275.8889 14.34217618412665
IRIDIUM 180             
1 43922U 19002A   26163.25216315 -.00000011  00000+0 -10988-4 0  9998
2 43922  86.3967 355.6611 0002129  89.4678 270.6761 14.34217518388288
IRIDIUM 176             
1 43923U 19002B   26163.26529728  .00000747  00000+0  11449-3 0  9991
2 43923  86.6092 355.5999 0002243  91.8062 268.3412 14.72261005398527
IRIDIUM 168             
1 43924U 19002C   26163.24582130  .00000044  00000+0  85815-5 0  9996
2 43924  86.3974 355.7410 0002180  88.9538 271.1908 14.34217808388261
IRIDIUM 173             
1 43925U 19002D   26163.23313586  .00000007  00000+0 -45831-5 0  9997
2 43925  86.3965 355.6351 0002125  86.5579 273.5860 14.34217070388245
IRIDIUM 169             
1 43926U 19002E   26163.17467158  .00000135  00000+0  37497-4 0  9995
2 43926  86.4229  27.2892 0002025  71.1713 288.9705 14.38606441389507
IRIDIUM 172             
1 43927U 19002F   26163.08725500  .00000212  00000+0  68794-4 0  9994
2 43927  86.3969 355.7044 0002252  89.2492 270.8962 14.34217202388235
IRIDIUM 175             
1 43928U 19002G   26163.28516739  .00000288  00000+0  79026-4 0  9992
2 43928  86.4508 292.5703 0001850 197.0822 163.0317 14.43610189398277
IRIDIUM 171             
1 43929U 19002H   26163.27753299 -.00000256  00000+0 -98662-4 0  9990
2 43929  86.3975 355.9303 0001933  87.0719 273.0698 14.34216679388257
IRIDIUM 170             
1 43930U 19002J   26163.27147958  .00000743  00000+0  11393-3 0  9995
2 43930  86.6090 355.5996 0002358  88.1371 272.0117 14.72261428398533
IRIDIUM 167             
1 43931U 19002K   26163.27119056  .00000054  00000+0  12263-4 0  9997
2 43931  86.3970 355.6496 0001853  88.3519 271.7889 14.34217905388258
IRIDIUM 181             
1 56726U 23068S   26163.18407069  .00000302  00000+0  83850-4 0  9990
2 56726  86.4503  58.8820 0002332  89.7075 270.4393 14.43312210161716
IRIDIUM 177             
1 56727U 23068T   26163.18484589  .00001013  00000+0  12980-3 0  9998
2 56727  86.1958 331.1678 0002409  87.5070 272.6427 14.80221371165626
IRIDIUM 174             
1 56728U 23068U   26163.05522826  .00000667  00000+0  10183-3 0  9999
2 56728  86.6098 355.8371 0002535  84.7612 275.3895 14.72256726165263
IRIDIUM 178             
1 56729U 23068V   26163.10637517  .00000820  00000+0  10445-3 0  9992
2 56729  86.6542  27.4837 0002674  87.3763 272.7765 14.80224938165612
IRIDIUM 179             
1 56730U 23068W   26163.16858493  .00000984  00000+0  12602-3 0  9996
2 56730  86.6781  36.4225 0002396  88.3047 271.8449 14.80237858165622
