OBJECT_NAME,OBJECT_ID,EPOCH,MEAN_MOTION,ECCENTRICITY,INCLINATION,RA_OF_ASC_NODE,ARG_OF_PERICENTER,MEAN_ANOMALY,EPHEMERIS_TYPE,CLASSIFICATION_TYPE,NORAD_CAT_ID,ELEMENT_SET_NO,REV_AT_EPOCH,BSTAR,MEAN_MOTION_DOT,MEAN_MOTION_DDOT
IRIDIUM 154,2018-061F,2026-06-12T03:19:26.467392,14.34217633,.00020765,86.3968,58.9178,87.1992,272.9442,0,U,43574,999,41268,.39264E-6,.21E-6,0
IRIDIUM 163,2018-061G,2026-06-12T04:32:29.818464,14.34216757,.00022809,86.3963,58.8121,83.4012,276.7444,0,U,43575,999,41266,.6202202E-4,.193E-5,0
IRIDIUM 156,2018-061H,2026-06-12T05:36:26.389728,14.34217437,.00020944,86.3963,58.8007,80.5538,279.5894,0,U,43576,999,41266,.86790493E-4,.263E-5,0
IRIDIUM 164,2018-061J,2026-06-12T05:09:02.469888,14.34217648,.00020983,86.3966,58.8490,88.7598,271.3838,0,U,43577,999,41270,.17348666E-4,.68E-6,0
IRIDIUM 159,2018-061K,2026-06-12T04:23:22.472736,14.34217618,.00023078,86.3963,58.7992,84.2570,275.8889,0,U,43578,999,41266,.50470302E-4,.161E-5,0
IRIDIUM 180,2019-002A,2026-06-12T06:03:06.896160,14.34217518,.00021299,86.3967,355.6611,89.4678,270.6761,0,U,43922,999,38828,-.10987598E-4,-.11E-6,0
IRIDIUM 176,2019-002B,2026-06-12T06:22:01.684992,14.72261005,.00022436,86.6092,355.5999,91.8062,268.3412,0,U,43923,999,39852,.11449067E-3,.747E-5,0
IRIDIUM 168,2019-002C,2026-06-12T05:53:58.960320,14.34217808,.00021809,86.3974,355.7410,88.9538,271.1908,0,U,43924,999,38826,.8581546E-5,.44E-6,0
IRIDIUM 173,2019-002D,2026-06-12T05:35:42.938304,14.34217070,.0002125,86.3965,355.6351,86.5579,273.5860,0,U,43925,999,38824,-.4583129E-5,.7E-7,0
IRIDIUM 169,2019-002E,2026-06-12T04:11:31.624512,14.38606441,.00020258,86.4229,27.2892,71.1713,288.9705,0,U,43926,999,38950,.37496632E-4,.135E-5,0
IRIDIUM 172,2019-002F,2026-06-12T02:05:38.832000,14.34217202,.00022526,86.3969,355.7044,89.2492,270.8962,0,U,43927,999,38823,.68794071E-4,.212E-5,0
IRIDIUM 175,2019-002G,2026-06-12T06:50:38.462496,14.43610189,.00018506,86.4508,292.5703,197.0822,163.0317,0,U,43928,999,39827,.79026498E-4,.288E-5,0
IRIDIUM 171,2019-002H,2026-06-12T06:39:38.850336,14.34216679,.00019334,86.3975,355.9303,87.0719,273.0698,0,U,43929,999,38825,-.98662009E-4,-.256E-5,0
IRIDIUM 170,2019-002J,2026-06-12T06:30:55.835712,14.72261428,.00023587,86.6090,355.5996,88.1371,272.0117,0,U,43930,999,39853,.11392557E-3,.743E-5,0
IRIDIUM 167,2019-002K,2026-06-12T06:30:30.864384,14.34217905,.00018532,86.3970,355.6496,88.3519,271.7889,0,U,43931,999,38825,.12263298E-4,.54E-6,0
IRIDIUM 181,2023-068S,2026-06-12T04:25:03.707616,14.43312210,.00023323,86.4503,58.8820,89.7075,270.4393,0,U,56726,999,16171,.83849616E-4,.302E-5,0
IRIDIUM 177,2023-068T,2026-06-12T04:26:10.684896,14.80221371,.00024095,86.1958,331.1678,87.5070,272.6427,0,U,56727,999,16562,.1298017E-3,.1013E-4,0
IRIDIUM 174,2023-068U,2026-06-12T01:19:31.721664,14.72256726,.00025359,86.6098,355.8371,84.7612,275.3895,0,U,56728,999,16526,.10183473E-3,.667E-5,0
IRIDIUM 178,2023-068V,2026-06-12T02:33:10.814688,14.80224938,.00026749,86.6542,27.4837,87.3763,272.7765,0,U,56729,999,16561,.10445051E-3,.82E-5,0
IRIDIUM 179,2023-068W,2026-06-12T04:02:45.737952,14.80237858,.00023965,86.6781,36.4225,88.3047,271.8449,0,U,56730,999,16562,.12602225E-3,.984E-5,0
